[{"OBJECT_NAME":"QIANFAN-64","OBJECT_ID":"2025-016K","EPOCH":"2026-03-09T23:33:58.082400","MEAN_MOTION":13.51005739,"ECCENTRICITY":0.00162512,"INCLINATION":88.9674,"RA_OF_ASC_NODE":93.9918,"ARG_OF_PERICENTER":90.3417,"MEAN_ANOMALY":269.9596,"EPHEMERIS_TYPE":0,"CLASSIFICATION_TYPE":"U","NORAD_CAT_ID":62794,"ELEMENT_SET_NO":999,"REV_AT_EPOCH":5904,"BSTAR":4.1237248e-5,"MEAN_MOTION_DOT":3.9e-7,"MEAN_MOTION_DDOT":0},{"OBJECT_NAME":"THORAD AGENA D DEB","OBJECT_ID":"1970-025BN","EPOCH":"2026-03-09T12:52:53.390784","MEAN_MOTION":13.5608596,"ECCENTRICITY":0.00688898,"INCLINATION":99.3655,"RA_OF_ASC_NODE":267.6524,"ARG_OF_PERICENTER":269.5792,"MEAN_ANOMALY":148.6614,"EPHEMERIS_TYPE":0,"CLASSIFICATION_TYPE":"U","NORAD_CAT_ID":4689,"ELEMENT_SET_NO":999,"REV_AT_EPOCH":75691,"BSTAR":0.00041487179,"MEAN_MOTION_DOT":2.53e-6,"MEAN_MOTION_DDOT":0}]
